{
    "links": {
        "self": "http://www.neowsapp.com/rest/v1/neo/3422247?api_key=iIulBulltgU6a56xZRHN4H3l9WmuAYTsLGpBGhQ2"
    },
    "id": "3422247",
    "neo_reference_id": "3422247",
    "name": "(2008 OM8)",
    "designation": "2008 OM8",
    "nasa_jpl_url": "http://ssd.jpl.nasa.gov/sbdb.cgi?sstr=3422247",
    "absolute_magnitude_h": 22.0,
    "estimated_diameter": {
        "kilometers": {
            "estimated_diameter_min": 0.1058168859,
            "estimated_diameter_max": 0.2366137501
        },
        "meters": {
            "estimated_diameter_min": 105.8168859331,
            "estimated_diameter_max": 236.6137501138
        },
        "miles": {
            "estimated_diameter_min": 0.0657515442,
            "estimated_diameter_max": 0.1470249225
        },
        "feet": {
            "estimated_diameter_min": 347.1682720448,
            "estimated_diameter_max": 776.2918559233
        }
    },
    "is_potentially_hazardous_asteroid": false,
    "close_approach_data": [
        {
            "close_approach_date": "2005-08-08",
            "close_approach_date_full": "2005-Aug-08 21:28",
            "epoch_date_close_approach": 1123536480000,
            "relative_velocity": {
                "kilometers_per_second": "10.8452574152",
                "kilometers_per_hour": "39042.9266947067",
                "miles_per_hour": "24259.7563120526"
            },
            "miss_distance": {
                "astronomical": "0.3416721917",
                "lunar": "132.9104825713",
                "kilometers": "51113432.116551679",
                "miles": "31760413.9672600102"
            },
            "orbiting_body": "Earth"
        },
        {
            "close_approach_date": "2008-08-18",
            "close_approach_date_full": "2008-Aug-18 08:05",
            "epoch_date_close_approach": 1219046700000,
            "relative_velocity": {
                "kilometers_per_second": "6.137462894",
                "kilometers_per_hour": "22094.8664182462",
                "miles_per_hour": "13728.8907474931"
            },
            "miss_distance": {
                "astronomical": "0.1604534759",
                "lunar": "62.4164021251",
                "kilometers": "24003498.228736333",
                "miles": "14915082.1777860754"
            },
            "orbiting_body": "Earth"
        },
        {
            "close_approach_date": "2011-08-26",
            "close_approach_date_full": "2011-Aug-26 10:33",
            "epoch_date_close_approach": 1314354780000,
            "relative_velocity": {
                "kilometers_per_second": "7.3806392842",
                "kilometers_per_hour": "26570.3014229466",
                "miles_per_hour": "16509.7520147192"
            },
            "miss_distance": {
                "astronomical": "0.3033912798",
                "lunar": "118.0192078422",
                "kilometers": "45386689.234654026",
                "miles": "28201980.9471805188"
            },
            "orbiting_body": "Earth"
        }
    ],
    "orbital_data": {
        "orbit_id": "16",
        "orbit_determination_date": "2017-04-06 09:03:11",
        "first_observation_date": "2008-07-30",
        "last_observation_date": "2008-09-06",
        "data_arc_in_days": 38,
        "observations_used": 48,
        "orbit_uncertainty": "7",
        "minimum_orbit_intersection": ".160702",
        "jupiter_tisserand_invariant": "3.601",
        "epoch_osculation": "2459000.5",
        "eccentricity": ".4475889016429709",
        "semi_major_axis": "2.100546579093241",
        "inclination": "8.427431944334895",
        "ascending_node_longitude": "129.6345104117743",
        "orbital_period": "1111.979808669023",
        "perihelion_distance": "1.160365242906997",
        "perihelion_argument": "206.4613481242373",
        "aphelion_distance": "3.040727915279485",
        "perihelion_time": "2459153.453103867428",
        "mean_anomaly": "310.4819089672305",
        "mean_motion": ".3237468856839223",
        "equinox": "J2000",
        "orbit_class": {
            "orbit_class_type": "AMO",
            "orbit_class_description": "Near-Earth asteroid orbits similar to that of 1221 Amor",
            "orbit_class_range": "1.017 AU < q (perihelion) < 1.3 AU"
        }
    },
    "is_sentry_object": false
}